[{"OBJECT_NAME":"STARLINK-6371","OBJECT_ID":"2023-099BF","EPOCH":"2026-03-09T22:00:01.999584","MEAN_MOTION":15.14777306,"ECCENTRICITY":0.00021038,"INCLINATION":42.9994,"RA_OF_ASC_NODE":221.5775,"ARG_OF_PERICENTER":251.7868,"MEAN_ANOMALY":47.9764,"EPHEMERIS_TYPE":0,"CLASSIFICATION_TYPE":"U","NORAD_CAT_ID":57381,"ELEMENT_SET_NO":999,"REV_AT_EPOCH":568,"BSTAR":0.0056684981,"MEAN_MOTION_DOT":0.00108488,"MEAN_MOTION_DDOT":0},{"OBJECT_NAME":"SITRO-TD-3","OBJECT_ID":"2025-313Y","EPOCH":"2026-03-09T22:34:33.372192","MEAN_MOTION":15.21559953,"ECCENTRICITY":0.00145757,"INCLINATION":97.4011,"RA_OF_ASC_NODE":145.2018,"ARG_OF_PERICENTER":358.2913,"MEAN_ANOMALY":1.827,"EPHEMERIS_TYPE":0,"CLASSIFICATION_TYPE":"U","NORAD_CAT_ID":67270,"ELEMENT_SET_NO":999,"REV_AT_EPOCH":1085,"BSTAR":0.00053243574,"MEAN_MOTION_DOT":0.00011975,"MEAN_MOTION_DDOT":0}]
